APRIZESAT 2             
1 28366U 04025A   25111.03588752  .00000437  00000+0  14867-3 0  9996
2 28366  98.0774 296.7472 0107308  84.8568 276.4856 14.37767726 90981
SAUDICOMSAT 1           
1 28369U 04025D   25110.91129488  .00000794  00000+0  19493-3 0  9998
2 28369  98.5686 104.9475 0031313 235.5473 124.2763 14.54963427102713
SAUDICOMSAT 2           
1 28370U 04025E   25110.95310592  .00000744  00000+0  20262-3 0  9993
2 28370  98.6591 106.4410 0057052  98.0461 262.7211 14.49544644 98927
APRIZESAT 1             
1 28372U 04025G   25110.96326445  .00000706  00000+0  18687-3 0  9996
2 28372  98.6226 105.4141 0044931   0.3523 359.7695 14.51404821100653
NANOSAT-1               
1 28493U 04049B   25111.21333534  .00002594  00000+0  36036-3 0  9997
2 28493  98.1716 234.4598 0003786 191.9281 168.1840 14.78768345 93081
SAUDICOMSAT 7           
1 31119U 07012C   25110.47240583  .00001620  00000+0  30275-3 0  9995
2 31119  98.3231  72.7084 0057952  81.5184 279.2582 14.65264230960515
SAUDICOMSAT 6           
1 31121U 07012E   25110.86729145  .00001005  00000+0  20435-3 0  9991
2 31121  98.3539  67.3256 0072186 200.9325 158.8916 14.61783345958463
SAUDICOMSAT 5           
1 31124U 07012H   25110.88885401  .00001767  00000+0  31725-3 0  9993
2 31124  98.2938  73.9797 0048630  16.1775 344.0968 14.67247813961645
SAUDICOMSAT 3           
1 31125U 07012J   25110.87583760  .00001864  00000+0  31879-3 0  9994
2 31125  98.2602  74.5969 0038761 308.7950  50.9796 14.69639503962771
SAUDICOMSAT 4           
1 31127U 07012L   25110.46482490  .00001298  00000+0  25171-3 0  9998
2 31127  98.3431  71.1950 0065189 138.2818 222.3382 14.63685571959525
APRIZESAT 4             
1 35684U 09041D   25111.13510366  .00001418  00000+0  17933-3 0  9994
2 35684  98.1893 172.1056 0042828 248.0583 111.6075 14.82909404848846
APRIZESAT 3             
1 35686U 09041F   25110.84064566  .00003313  00000+0  30229-3 0  9998
2 35686  98.1467 241.0373 0064353  21.9313 338.4638 14.94260965853260
AISSAT 1                
1 36797U 10035C   25110.57826600  .00003570  00000+0  33389-3 0  9997
2 36797  98.1418 349.5822 0009860  23.1202 337.0459 14.94760067801038
S-NET D                 
1 43186U 18014G   25110.71747498  .00008096  00000+0  48513-3 0  9998
2 43186  97.5662  14.1423 0010664  45.8499 314.3606 15.11201463394845
S-NET B                 
1 43187U 18014H   25110.72224459  .00008181  00000+0  49035-3 0  9992
2 43187  97.5668  14.1164 0011230  40.7716 319.4352 15.11183676394849
S-NET A                 
1 43188U 18014J   25110.65181661  .00008186  00000+0  49032-3 0  9994
2 43188  97.5673  14.1901 0011133  42.0569 318.1514 15.11205841394832
S-NET C                 
1 43189U 18014K   25110.72453778  .00008233  00000+0  49330-3 0  9998
2 43189  97.5690  14.2678 0012413  33.8996 326.3025 15.11180964393394
SALSAT                  
1 46495U 20068K   25110.85925412  .00011059  00000+0  48863-3 0  9996
2 46495  97.8581  86.6316 0010904 345.9130  14.1799 15.21857934250965
OOV-CUBE (TUBSAT-30)    
1 60240U 24128F   25110.80323812  .00004314  00000+0  35436-3 0  9990
2 60240  61.9962 255.2120 0046776  43.1726 317.3015 14.99916949 42699
